{
    "links": {
        "self": "http://www.neowsapp.com/rest/v1/neo/3789448?api_key=iIulBulltgU6a56xZRHN4H3l9WmuAYTsLGpBGhQ2"
    },
    "id": "3789448",
    "neo_reference_id": "3789448",
    "name": "(2017 WS)",
    "designation": "2017 WS",
    "nasa_jpl_url": "http://ssd.jpl.nasa.gov/sbdb.cgi?sstr=3789448",
    "absolute_magnitude_h": 25.2,
    "estimated_diameter": {
        "kilometers": {
            "estimated_diameter_min": 0.0242412481,
            "estimated_diameter_max": 0.0542050786
        },
        "meters": {
            "estimated_diameter_min": 24.2412481101,
            "estimated_diameter_max": 54.2050786336
        },
        "miles": {
            "estimated_diameter_min": 0.0150628086,
            "estimated_diameter_max": 0.0336814639
        },
        "feet": {
            "estimated_diameter_min": 79.5316564495,
            "estimated_diameter_max": 177.8381901842
        }
    },
    "is_potentially_hazardous_asteroid": false,
    "close_approach_data": [
        {
            "close_approach_date": "2017-11-29",
            "close_approach_date_full": "2017-Nov-29 03:13",
            "epoch_date_close_approach": 1511925180000,
            "relative_velocity": {
                "kilometers_per_second": "6.6865432512",
                "kilometers_per_hour": "24071.5557043497",
                "miles_per_hour": "14957.1285986277"
            },
            "miss_distance": {
                "astronomical": "0.0524164405",
                "lunar": "20.3899953545",
                "kilometers": "7841387.851781735",
                "miles": "4872412.474328543"
            },
            "orbiting_body": "Earth"
        },
        {
            "close_approach_date": "2025-02-14",
            "close_approach_date_full": "2025-Feb-14 14:16",
            "epoch_date_close_approach": 1739542560000,
            "relative_velocity": {
                "kilometers_per_second": "18.8718325881",
                "kilometers_per_hour": "67938.5973170869",
                "miles_per_hour": "42214.4023162755"
            },
            "miss_distance": {
                "astronomical": "0.4342994787",
                "lunar": "168.9424972143",
                "kilometers": "64970276.955630369",
                "miles": "40370658.0879383322"
            },
            "orbiting_body": "Earth"
        },
        {
            "close_approach_date": "2129-02-08",
            "close_approach_date_full": "2129-Feb-08 23:17",
            "epoch_date_close_approach": 5020960620000,
            "relative_velocity": {
                "kilometers_per_second": "14.9357493959",
                "kilometers_per_hour": "53768.697825299",
                "miles_per_hour": "33409.7778237254"
            },
            "miss_distance": {
                "astronomical": "0.3059458064",
                "lunar": "119.0129186896",
                "kilometers": "45768840.972872368",
                "miles": "28439439.0262319584"
            },
            "orbiting_body": "Earth"
        },
        {
            "close_approach_date": "2142-12-25",
            "close_approach_date_full": "2142-Dec-25 09:09",
            "epoch_date_close_approach": 5458784940000,
            "relative_velocity": {
                "kilometers_per_second": "11.2026595033",
                "kilometers_per_hour": "40329.5742119804",
                "miles_per_hour": "25059.2290429942"
            },
            "miss_distance": {
                "astronomical": "0.0793876238",
                "lunar": "30.8817856582",
                "kilometers": "11876219.424841306",
                "miles": "7379540.5567537828"
            },
            "orbiting_body": "Mars"
        },
        {
            "close_approach_date": "2199-11-05",
            "close_approach_date_full": "2199-Nov-05 03:12",
            "epoch_date_close_approach": 7253205120000,
            "relative_velocity": {
                "kilometers_per_second": "15.6522151758",
                "kilometers_per_hour": "56347.9746329311",
                "miles_per_hour": "35012.4401267788"
            },
            "miss_distance": {
                "astronomical": "0.3258027977",
                "lunar": "126.7372883053",
                "kilometers": "48739404.575960899",
                "miles": "30285261.6572584462"
            },
            "orbiting_body": "Earth"
        }
    ],
    "orbital_data": {
        "orbit_id": "3",
        "orbit_determination_date": "2017-12-13 06:21:29",
        "first_observation_date": "2017-11-16",
        "last_observation_date": "2017-12-12",
        "data_arc_in_days": 26,
        "observations_used": 36,
        "orbit_uncertainty": "7",
        "minimum_orbit_intersection": ".0359013",
        "jupiter_tisserand_invariant": "3.984",
        "epoch_osculation": "2459000.5",
        "eccentricity": ".4358397927099452",
        "semi_major_axis": "1.773341889352848",
        "inclination": "2.558471937297246",
        "ascending_node_longitude": "218.7881415065488",
        "orbital_period": "862.5556739123519",
        "perihelion_distance": "1.00044892789344",
        "perihelion_argument": "231.2378464273727",
        "aphelion_distance": "2.546234850812255",
        "perihelion_time": "2458968.172144510145",
        "mean_anomaly": "13.49249483637425",
        "mean_motion": ".4173643637020248",
        "equinox": "J2000",
        "orbit_class": {
            "orbit_class_type": "APO",
            "orbit_class_description": "Near-Earth asteroid orbits which cross the Earth’s orbit similar to that of 1862 Apollo",
            "orbit_class_range": "a (semi-major axis) > 1.0 AU; q (perihelion) < 1.017 AU"
        }
    },
    "is_sentry_object": false
}